#dP2013  4  3 12  4  1.23456789      96 ORBIT WGS84 BCT MGEX
## 1734 259200.00000000   900.00000000 56385 0.1234567891234
+ 140    G01G02G03G04G05G06G07G08G09G10G11G12G13G14G15G16G17
+        G18G19G20G21G22G23G24G25G26G27G28G29G30G31G32R01R02
+        R03R04R05R06R07R08R09R10R11R12R13R14R15R16R17R18R19
+        R20R21R22R23R24E01E02E03E04E05E06E07E08E09E10E11E12
+        E13E14E15E16E17E18E19E20E21E22E23E24E25E26E27E28E29
+        E30C01C02C03C04C05C06C07C08C09C10C11C12C13C14C15C16
+        C17C18C19C20C21C22C23C24C25C26C27C28C29C30C31C32C33
+        C34C35J01J02J03I01I02I03I04I05I06I07S20S24S27S28S29
+        S33S35S37S38  0  0  0  0  0  0  0  0  0  0  0  0  0
++         0  0  0  0  0  0  0  0  0  0  0  0  0  0  0  0  0
++         0  0  0  0  0  0  0  0  0  0  0  0  0  0  0  0  0
++         0  0  0  0  0  0  0  0  0  0  0  0  0  0  0  0  0
++         0  0  0  0  0  0  0  0  0  0  0  0  0  0  0  0  0
++         0  0  0  0  0  0  0  0  0  0  0  0  0  0  0  0  0
++         0  0  0  0  0  0  0  0  0  0  0  0  0  0  0  0  0
++         0  0  0  0  0  0  0  0  0  0  0  0  0  0  0  0  0
++         0  0  0  0  0  0  0  0  0  0  0  0  0  0  0  0  0
++         0  0  0  0  0  0  0  0  0  0  0  0  0  0  0  0  0
%c M  cc GPS ccc cccc cccc cccc cccc ccccc ccccc ccccc ccccc
%c cc cc ccc ccc cccc cccc cccc cccc ccccc ccccc ccccc ccccc
%f  1.2500000  1.025000000  0.00000000000  0.000000000000000
%f  0.0000000  0.000000000  0.00000000000  0.000000000000000
%i    0    0    0    0      0      0      0      0         0
%i    0    0    0    0      0      0      0      0         0
/* Note: This is an example file copied from the following page with small modification.
/* https://files.igs.org/pub/data/format/sp3d.pdf?_ga=2.115202830.823990648.1664976786-1792483726.1664976785
/* Comment 
/* Comment
*  2013  4  3  0  0  0.00000000 
PG01   5783.206741 -18133.044484 -18510.756016     12.734450
PG02 -22412.401440  13712.162332    528.367722    425.364822
PG03  10114.112309 -17446.189044  16665.051308    189.049475
PG04 -24002.325710   4250.313148 -11163.577756    179.333612
PG05 -15087.153141   8034.886396  20331.626539   -390.251167
PG06  13855.140409 -11053.269706  19768.346019    289.556712

*  2013  4  3  0  0  0.00000000 
PG01   5783.206741 -18133.044484 -18510.756016     12.734450
PG02 -22412.401440  13712.162332    528.367722    425.364822
PG03  10114.112309 -17446.189044  16665.051308    189.049475
PG04 -24002.325710   4250.313148 -11163.577756    179.333612
PG05 -15087.153141   8034.886396  20331.626539   -390.251167
PG06  13855.140409 -11053.269706  19768.346019    289.556712
